{
  "norad_id": 65649,
  "name": "STARLINK-35079",
  "history": [
    {
      "epoch": "2026-05-06T18:49:58.066176Z",
      "apogee_km": 476.25050575522164,
      "perigee_km": 474.25753964581963,
      "latitude_deg": -3.77889887751661e-06,
      "longitude_deg": -109.76050364959092,
      "height_km": 476.3170412915024,
      "semi_major_axis_km": 6853.39102270052,
      "eccentricity": 0.0001454,
      "inclination_deg": 53.1586,
      "raan_deg": 37.3718,
      "arg_perigee_deg": 99.5502,
      "mean_anomaly_deg": 260.5663,
      "mean_motion_rev_day": 15.30186954
    },
    {
      "epoch": "2026-05-07T18:20:45.984768Z",
      "apogee_km": 476.3837704786365,
      "perigee_km": 473.96729248003703,
      "latitude_deg": -3.493923914454449e-05,
      "longitude_deg": -107.97844848874355,
      "height_km": 476.139960744454,
      "semi_major_axis_km": 6853.312531479337,
      "eccentricity": 0.0001763,
      "inclination_deg": 53.1583,
      "raan_deg": 32.8192,
      "arg_perigee_deg": 93.1891,
      "mean_anomaly_deg": 266.9311,
      "mean_motion_rev_day": 15.30213242
    },
    {
      "epoch": "2026-05-08T20:59:40.187616Z",
      "apogee_km": 476.1494500516201,
      "perigee_km": 474.2757442717548,
      "latitude_deg": 3.7754327509804642e-06,
      "longitude_deg": -153.95647859881282,
      "height_km": 475.372851392082,
      "semi_major_axis_km": 6853.349597161687,
      "eccentricity": 0.0001367,
      "inclination_deg": 53.1585,
      "raan_deg": 27.6614,
      "arg_perigee_deg": 38.0002,
      "mean_anomaly_deg": 322.1095,
      "mean_motion_rev_day": 15.30200828
    },
    {
      "epoch": "2026-05-09T20:30:27.421920Z",
      "apogee_km": 476.174200870033,
      "perigee_km": 474.4320563893343,
      "latitude_deg": 3.2308505735981145e-05,
      "longitude_deg": -152.1684185262213,
      "height_km": 476.0343005133383,
      "semi_major_axis_km": 6853.440128629683,
      "eccentricity": 0.0001271,
      "inclination_deg": 53.1588,
      "raan_deg": 23.1119,
      "arg_perigee_deg": 78.9609,
      "mean_anomaly_deg": 281.1535,
      "mean_motion_rev_day": 15.30170508
    },
    {
      "epoch": "2026-05-10T20:01:16.430016Z",
      "apogee_km": 476.11384700485087,
      "perigee_km": 474.3621243585103,
      "latitude_deg": 1.6097135675461834e-06,
      "longitude_deg": -150.38981271675232,
      "height_km": 475.9560685889388,
      "semi_major_axis_km": 6853.37498568168,
      "eccentricity": 0.0001278,
      "inclination_deg": 53.1588,
      "raan_deg": 18.5604,
      "arg_perigee_deg": 78.1479,
      "mean_anomaly_deg": 281.9665,
      "mean_motion_rev_day": 15.30192325
    },
    {
      "epoch": "2026-05-11T19:32:04.130016Z",
      "apogee_km": 476.1417963475269,
      "perigee_km": 474.2571288203171,
      "latitude_deg": 4.306526052992874e-05,
      "longitude_deg": -148.6090869560355,
      "height_km": 475.89269102556744,
      "semi_major_axis_km": 6853.336462583922,
      "eccentricity": 0.0001375,
      "inclination_deg": 53.1597,
      "raan_deg": 14.0055,
      "arg_perigee_deg": 77.4529,
      "mean_anomaly_deg": 282.6626,
      "mean_motion_rev_day": 15.30205227
    },
    {
      "epoch": "2026-05-12T20:36:55.097856Z",
      "apogee_km": 476.15369182056384,
      "perigee_km": 474.2155724629938,
      "latitude_deg": 3.66338113639712e-05,
      "longitude_deg": -170.70399018754247,
      "height_km": 476.1352514494812,
      "semi_major_axis_km": 6853.3216321417785,
      "eccentricity": 0.0001414,
      "inclination_deg": 53.161,
      "raan_deg": 9.153,
      "arg_perigee_deg": 93.1136,
      "mean_anomaly_deg": 267.0027,
      "mean_motion_rev_day": 15.30210194
    },
    {
      "epoch": "2026-05-12T22:10:58.414944Z",
      "apogee_km": 475.99232807156113,
      "perigee_km": 474.390019944477,
      "latitude_deg": 8.511837814056413e-06,
      "longitude_deg": 165.41888913975856,
      "height_km": 475.72472109488456,
      "semi_major_axis_km": 6853.328174008018,
      "eccentricity": 0.0001169,
      "inclination_deg": 53.1612,
      "raan_deg": 8.8541,
      "arg_perigee_deg": 62.8988,
      "mean_anomaly_deg": 297.2132,
      "mean_motion_rev_day": 15.30208003
    },
    {
      "epoch": "2026-05-13T21:41:46.329216Z",
      "apogee_km": 476.1473595984871,
      "perigee_km": 474.2270581551593,
      "latitude_deg": 2.3539286285024685e-06,
      "longitude_deg": 167.2014850754143,
      "height_km": 476.14688601169985,
      "semi_major_axis_km": 6853.324208876823,
      "eccentricity": 0.0001401,
      "inclination_deg": 53.1614,
      "raan_deg": 4.302,
      "arg_perigee_deg": 93.68,
      "mean_anomaly_deg": 266.4361,
      "mean_motion_rev_day": 15.30209331
    },
    {
      "epoch": "2026-05-14T08:40:08.345280Z",
      "apogee_km": 475.57693974889844,
      "perigee_km": 474.76920862355473,
      "latitude_deg": -4.7715031239950684e-06,
      "longitude_deg": 0.033510148781879245,
      "height_km": 476.3282219546011,
      "semi_major_axis_km": 6853.310074186226,
      "eccentricity": 5.893e-05,
      "inclination_deg": 53.1614,
      "raan_deg": 2.1764,
      "arg_perigee_deg": 129.3091,
      "mean_anomaly_deg": 230.7962,
      "mean_motion_rev_day": 15.30214065
    },
    {
      "epoch": "2026-05-16T07:41:43.983744Z",
      "apogee_km": 475.3218693986282,
      "perigee_km": 474.96426524471553,
      "latitude_deg": 6.941458261257534e-05,
      "longitude_deg": 3.603358039512464,
      "height_km": 476.2145133177945,
      "semi_major_axis_km": 6853.280067321672,
      "eccentricity": 2.609e-05,
      "inclination_deg": 53.1613,
      "raan_deg": 353.076,
      "arg_perigee_deg": 163.7869,
      "mean_anomaly_deg": 196.3141,
      "mean_motion_rev_day": 15.30224115
    }
  ]
}